{
  "type": "FeatureCollection",
  "features": [
    {
      "type": "Feature",
      "properties": {
        "norad_id": 41589,
        "name": "EUTELSAT 117 WEST B (WAAS/PRN 131)",
        "group": "gnss",
        "lat": 0.008276221882171109,
        "lon": -73.71744383193682,
        "alt_km": 35785.87234222042,
        "timestamp": "2025-12-23T20:42:37.317740+00:00",
        "meta_object_name": "EUTELSAT 117 WEST B (WAAS/PRN 131)",
        "meta_object_id": "2016-038B",
        "meta_epoch": "2025-12-23T06:49:57.184896",
        "meta_mean_motion": 1.00269393,
        "meta_eccentricity": 2.146e-05,
        "meta_inclination": 0.0095,
        "meta_ra_of_asc_node": 152.625,
        "meta_arg_of_pericenter": 152.4862,
        "meta_mean_anomaly": 132.4463,
        "meta_ephemeris_type": 0,
        "meta_classification_type": "U",
        "meta_norad_cat_id": 41589,
        "meta_element_set_no": 999,
        "meta_rev_at_epoch": 3489,
        "meta_bstar": 0,
        "meta_mean_motion_dot": 1e-07,
        "meta_mean_motion_ddot": 0,
        "tle_line1": "1 41589U 16038B   25357.28468964  .00000010  00000+0  00000+0 0  9993",
        "tle_line2": "2 41589   0.0095 152.6250 0000214 152.4862 132.4463  1.00269393 34899"
      },
      "geometry": {
        "type": "Point",
        "coordinates": [
          -73.71744383193682,
          0.008276221882171109
        ]
      }
    },
    {
      "type": "Feature",
      "properties": {
        "norad_id": 41859,
        "name": "GSAT0207 (GALILEO 15)",
        "group": "gnss",
        "lat": -38.75310837736326,
        "lon": 72.33469605849298,
        "alt_km": 23219.62808297897,
        "timestamp": "2025-12-23T20:42:37.317752+00:00",
        "meta_object_name": "GSAT0207 (GALILEO 15)",
        "meta_object_id": "2016-069A",
        "meta_epoch": "2025-12-22T04:24:39.710016",
        "meta_mean_motion": 1.70474442,
        "meta_eccentricity": 0.00024396,
        "meta_inclination": 55.3874,
        "meta_ra_of_asc_node": 105.9888,
        "meta_arg_of_pericenter": 317.4324,
        "meta_mean_anomaly": 42.5257,
        "meta_ephemeris_type": 0,
        "meta_classification_type": "U",
        "meta_norad_cat_id": 41859,
        "meta_element_set_no": 999,
        "meta_rev_at_epoch": 5638,
        "meta_bstar": 0,
        "meta_mean_motion_dot": 6e-08,
        "meta_mean_motion_ddot": 0,
        "tle_line1": "1 41859U 16069A   25356.18379294  .00000006  00000+0  00000+0 0  9997",
        "tle_line2": "2 41859  55.3874 105.9888 0002439 317.4324  42.5257  1.70474442 56382"
      },
      "geometry": {
        "type": "Point",
        "coordinates": [
          72.33469605849298,
          -38.75310837736326
        ]
      }
    },
    {
      "type": "Feature",
      "properties": {
        "norad_id": 41860,
        "name": "GSAT0212 (GALILEO 16)",
        "group": "gnss",
        "lat": 32.21797647484896,
        "lon": 131.69651821378096,
        "alt_km": 23212.574425493414,
        "timestamp": "2025-12-23T20:42:37.317765+00:00",
        "meta_object_name": "GSAT0212 (GALILEO 16)",
        "meta_object_id": "2016-069B",
        "meta_epoch": "2025-12-22T14:58:35.768640",
        "meta_mean_motion": 1.70474725,
        "meta_eccentricity": 0.00020435,
        "meta_inclination": 55.3853,
        "meta_ra_of_asc_node": 105.972,
        "meta_arg_of_pericenter": 18.0995,
        "meta_mean_anomaly": 341.8877,
        "meta_ephemeris_type": 0,
        "meta_classification_type": "U",
        "meta_norad_cat_id": 41860,
        "meta_element_set_no": 999,
        "meta_rev_at_epoch": 5664,
        "meta_bstar": 0,
        "meta_mean_motion_dot": 8e-08,
        "meta_mean_motion_ddot": 0,
        "tle_line1": "1 41860U 16069B   25356.62402510  .00000008  00000+0  00000+0 0  9998",
        "tle_line2": "2 41860  55.3853 105.9720 0002043  18.0995 341.8877  1.70474725 56641"
      },
      "geometry": {
        "type": "Point",
        "coordinates": [
          131.69651821378096,
          32.21797647484896
        ]
      }
    },
    {
      "type": "Feature",
      "properties": {
        "norad_id": 41861,
        "name": "GSAT0213 (GALILEO 17)",
        "group": "gnss",
        "lat": 4.311974340666523,
        "lon": -77.03541372442041,
        "alt_km": 23224.079536010715,
        "timestamp": "2025-12-23T20:42:37.317777+00:00",
        "meta_object_name": "GSAT0213 (GALILEO 17)",
        "meta_object_id": "2016-069C",
        "meta_epoch": "2025-12-17T17:05:43.699776",
        "meta_mean_motion": 1.70474994,
        "meta_eccentricity": 0.000259,
        "meta_inclination": 55.385,
        "meta_ra_of_asc_node": 106.1156,
        "meta_arg_of_pericenter": 282.1972,
        "meta_mean_anomaly": 77.7328,
        "meta_ephemeris_type": 0,
        "meta_classification_type": "U",
        "meta_norad_cat_id": 41861,
        "meta_element_set_no": 999,
        "meta_rev_at_epoch": 5642,
        "meta_bstar": 0,
        "meta_mean_motion_dot": -9e-08,
        "meta_mean_motion_ddot": 0,
        "tle_line1": "1 41861U 16069C   25351.71231134 -.00000009  00000+0  00000+0 0  9998",
        "tle_line2": "2 41861  55.3850 106.1156 0002590 282.1972  77.7328  1.70474994 56421"
      },
      "geometry": {
        "type": "Point",
        "coordinates": [
          -77.03541372442041,
          4.311974340666523
        ]
      }
    },
    {
      "type": "Feature",
      "properties": {
        "norad_id": 41862,
        "name": "GSAT0214 (GALILEO 18)",
        "group": "gnss",
        "lat": 55.11522449482545,
        "lon": -172.52721577166358,
        "alt_km": 23220.146824035925,
        "timestamp": "2025-12-23T20:42:37.317788+00:00",
        "meta_object_name": "GSAT0214 (GALILEO 18)",
        "meta_object_id": "2016-069D",
        "meta_epoch": "2025-12-21T09:04:04.029024",
        "meta_mean_motion": 1.70474854,
        "meta_eccentricity": 0.00016223,
        "meta_inclination": 55.385,
        "meta_ra_of_asc_node": 106.0069,
        "meta_arg_of_pericenter": 287.8422,
        "meta_mean_anomaly": 72.112,
        "meta_ephemeris_type": 0,
        "meta_classification_type": "U",
        "meta_norad_cat_id": 41862,
        "meta_element_set_no": 999,
        "meta_rev_at_epoch": 5661,
        "meta_bstar": 0,
        "meta_mean_motion_dot": 2e-08,
        "meta_mean_motion_ddot": 0,
        "tle_line1": "1 41862U 16069D   25355.37782441  .00000002  00000+0  00000+0 0  9999",
        "tle_line2": "2 41862  55.3850 106.0069 0001622 287.8422  72.1120  1.70474854 56616"
      },
      "geometry": {
        "type": "Point",
        "coordinates": [
          -172.52721577166358,
          55.11522449482545
        ]
      }
    },
    {
      "type": "Feature",
      "properties": {
        "norad_id": 42709,
        "name": "SES-15 (WAAS/PRN 133)",
        "group": "gnss",
        "lat": -0.03746844651522415,
        "lon": -85.87909997523121,
        "alt_km": 35786.91004026266,
        "timestamp": "2025-12-23T20:42:37.317846+00:00",
        "meta_object_name": "SES-15 (WAAS/PRN 133)",
        "meta_object_id": "2017-026A",
        "meta_epoch": "2025-12-22T11:37:11.806752",
        "meta_mean_motion": 1.00267282,
        "meta_eccentricity": 1.521e-05,
        "meta_inclination": 0.0196,
        "meta_ra_of_asc_node": 338.6163,
        "meta_arg_of_pericenter": 354.9736,
        "meta_mean_anomaly": 162.8448,
        "meta_ephemeris_type": 0,
        "meta_classification_type": "U",
        "meta_norad_cat_id": 42709,
        "meta_element_set_no": 999,
        "meta_rev_at_epoch": 566,
        "meta_bstar": 0,
        "meta_mean_motion_dot": 8.2e-07,
        "meta_mean_motion_ddot": 0,
        "tle_line1": "1 42709U 17026A   25356.48416443  .00000082  00000+0  00000+0 0  9991",
        "tle_line2": "2 42709   0.0196 338.6163 0000152 354.9736 162.8448  1.00267282  5663"
      },
      "geometry": {
        "type": "Point",
        "coordinates": [
          -85.87909997523121,
          -0.03746844651522415
        ]
      }
    },
    {
      "type": "Feature",
      "properties": {
        "norad_id": 42738,
        "name": "QZS-2 (QZSS/PRN 194)",
        "group": "gnss",
        "lat": -31.845963466156288,
        "lon": -162.65799817783503,
        "alt_km": 33105.20542433019,
        "timestamp": "2025-12-23T20:42:37.317860+00:00",
        "meta_object_name": "QZS-2 (QZSS/PRN 194)",
        "meta_object_id": "2017-028A",
        "meta_epoch": "2025-12-21T12:44:15.516096",
        "meta_mean_motion": 1.00280763,
        "meta_eccentricity": 0.07561437,
        "meta_inclination": 39.6996,
        "meta_ra_of_asc_node": 245.7532,
        "meta_arg_of_pericenter": 269.5788,
        "meta_mean_anomaly": 268.1676,
        "meta_ephemeris_type": 0,
        "meta_classification_type": "U",
        "meta_norad_cat_id": 42738,
        "meta_element_set_no": 999,
        "meta_rev_at_epoch": 584,
        "meta_bstar": 0,
        "meta_mean_motion_dot": -1.06e-06,
        "meta_mean_motion_ddot": 0,
        "tle_line1": "1 42738U 17028A   25355.53073514 -.00000106  00000+0  00000+0 0  9996",
        "tle_line2": "2 42738  39.6996 245.7532 0756143 269.5788 268.1676  1.00280763  5847"
      },
      "geometry": {
        "type": "Point",
        "coordinates": [
          -162.65799817783503,
          -31.845963466156288
        ]
      }
    }
  ]
}